[{"OBJECT_NAME":"STARLINK-4255","OBJECT_ID":"2022-076T","EPOCH":"2026-03-09T19:06:22.614048","MEAN_MOTION":15.08841248,"ECCENTRICITY":0.00016088,"INCLINATION":53.217,"RA_OF_ASC_NODE":93.6442,"ARG_OF_PERICENTER":73.3549,"MEAN_ANOMALY":286.7619,"EPHEMERIS_TYPE":0,"CLASSIFICATION_TYPE":"U","NORAD_CAT_ID":53003,"ELEMENT_SET_NO":999,"REV_AT_EPOCH":20286,"BSTAR":4.757932e-5,"MEAN_MOTION_DOT":4.69e-6,"MEAN_MOTION_DDOT":0},{"OBJECT_NAME":"SL-16 DEB","OBJECT_ID":"1992-093JY","EPOCH":"2026-03-07T13:13:58.279008","MEAN_MOTION":15.07529046,"ECCENTRICITY":0.0041412,"INCLINATION":71.2754,"RA_OF_ASC_NODE":129.6393,"ARG_OF_PERICENTER":153.6297,"MEAN_ANOMALY":274.6618,"EPHEMERIS_TYPE":0,"CLASSIFICATION_TYPE":"U","NORAD_CAT_ID":39708,"ELEMENT_SET_NO":999,"REV_AT_EPOCH":64104,"BSTAR":0.0012088,"MEAN_MOTION_DOT":0.00018716,"MEAN_MOTION_DDOT":0}]
